FLOCK 4H-29             
1 66732U 25276BU  26116.72532842  .00007173  00000+0  34455-3 0  9996
2 66732  97.4188 191.0364 0003406 175.0911 185.0357 15.19135731 22609
FLOCK 4H-30             
1 66733U 25276BV  26116.72279193  .00007539  00000+0  36106-3 0  9995
2 66733  97.4250 191.1643 0004626 170.4955 189.6368 15.19215469 22602
FLOCK 4H-31             
1 66734U 25276BW  26116.73322483  .00007497  00000+0  36094-3 0  9997
2 66734  97.4185 191.0243 0003933 174.3525 185.7755 15.19038529 22608
FLOCK 4H-32             
1 66735U 25276BX  26116.72715292  .00007486  00000+0  35931-3 0  9998
2 66735  97.4242 191.1431 0005084 168.6709 191.4641 15.19138985 22607
FLOCK 4H-33             
1 66736U 25276BY  26116.74608785  .00007925  00000+0  36725-3 0  9999
2 66736  97.4237 191.4182 0003815 110.0970 250.0676 15.20342977 22621
FLOCK 4H-34             
1 66737U 25276BZ  26116.44775876  .00007622  00000+0  35832-3 0  9995
2 66737  97.4252 191.0816 0003985 116.3864 243.7781 15.19859183 21825
FLOCK 4H-35             
1 66738U 25276CA  26116.76149341  .00007879  00000+0  36774-3 0  9993
2 66738  97.4214 191.3503 0003531 106.1144 254.0481 15.20098663 21917
FLOCK 4H-36             
1 66739U 25276CB  26116.72154534  .00007251  00000+0  34141-3 0  9990
2 66739  97.4261 191.3447 0004027 124.3040 235.8577 15.19824973 22615
