[{"OBJECT_NAME":"FLOCK 4H-29","OBJECT_ID":"2025-276BU","EPOCH":"2026-04-26T17:24:28.375488","MEAN_MOTION":15.19135731,"ECCENTRICITY":0.00034067,"INCLINATION":97.4188,"RA_OF_ASC_NODE":191.0364,"ARG_OF_PERICENTER":175.0911,"MEAN_ANOMALY":185.0357,"EPHEMERIS_TYPE":0,"CLASSIFICATION_TYPE":"U","NORAD_CAT_ID":66732,"ELEMENT_SET_NO":999,"REV_AT_EPOCH":2260,"BSTAR":0.00034455088,"MEAN_MOTION_DOT":7.173e-5,"MEAN_MOTION_DDOT":0},{"OBJECT_NAME":"FLOCK 4H-30","OBJECT_ID":"2025-276BV","EPOCH":"2026-04-26T17:20:49.222752","MEAN_MOTION":15.19215469,"ECCENTRICITY":0.00046262,"INCLINATION":97.425,"RA_OF_ASC_NODE":191.1643,"ARG_OF_PERICENTER":170.4955,"MEAN_ANOMALY":189.6368,"EPHEMERIS_TYPE":0,"CLASSIFICATION_TYPE":"U","NORAD_CAT_ID":66733,"ELEMENT_SET_NO":999,"REV_AT_EPOCH":2260,"BSTAR":0.000361063,"MEAN_MOTION_DOT":7.539e-5,"MEAN_MOTION_DDOT":0},{"OBJECT_NAME":"FLOCK 4H-31","OBJECT_ID":"2025-276BW","EPOCH":"2026-04-26T17:35:50.625312","MEAN_MOTION":15.19038529,"ECCENTRICITY":0.00039332,"INCLINATION":97.4185,"RA_OF_ASC_NODE":191.0243,"ARG_OF_PERICENTER":174.3525,"MEAN_ANOMALY":185.7755,"EPHEMERIS_TYPE":0,"CLASSIFICATION_TYPE":"U","NORAD_CAT_ID":66734,"ELEMENT_SET_NO":999,"REV_AT_EPOCH":2260,"BSTAR":0.00036094495,"MEAN_MOTION_DOT":7.497e-5,"MEAN_MOTION_DDOT":0},{"OBJECT_NAME":"FLOCK 4H-32","OBJECT_ID":"2025-276BX","EPOCH":"2026-04-26T17:27:06.012288","MEAN_MOTION":15.19138985,"ECCENTRICITY":0.00050843,"INCLINATION":97.4242,"RA_OF_ASC_NODE":191.1431,"ARG_OF_PERICENTER":168.6709,"MEAN_ANOMALY":191.4641,"EPHEMERIS_TYPE":0,"CLASSIFICATION_TYPE":"U","NORAD_CAT_ID":66735,"ELEMENT_SET_NO":999,"REV_AT_EPOCH":2260,"BSTAR":0.00035931288,"MEAN_MOTION_DOT":7.486e-5,"MEAN_MOTION_DDOT":0},{"OBJECT_NAME":"FLOCK 4H-33","OBJECT_ID":"2025-276BY","EPOCH":"2026-04-26T17:54:21.990240","MEAN_MOTION":15.20342977,"ECCENTRICITY":0.00038151,"INCLINATION":97.4237,"RA_OF_ASC_NODE":191.4182,"ARG_OF_PERICENTER":110.097,"MEAN_ANOMALY":250.0676,"EPHEMERIS_TYPE":0,"CLASSIFICATION_TYPE":"U","NORAD_CAT_ID":66736,"ELEMENT_SET_NO":999,"REV_AT_EPOCH":2262,"BSTAR":0.00036724735,"MEAN_MOTION_DOT":7.925e-5,"MEAN_MOTION_DDOT":0},{"OBJECT_NAME":"FLOCK 4H-34","OBJECT_ID":"2025-276BZ","EPOCH":"2026-04-26T10:44:46.356864","MEAN_MOTION":15.19859183,"ECCENTRICITY":0.00039857,"INCLINATION":97.4252,"RA_OF_ASC_NODE":191.0816,"ARG_OF_PERICENTER":116.3864,"MEAN_ANOMALY":243.7781,"EPHEMERIS_TYPE":0,"CLASSIFICATION_TYPE":"U","NORAD_CAT_ID":66737,"ELEMENT_SET_NO":999,"REV_AT_EPOCH":2182,"BSTAR":0.00035832029,"MEAN_MOTION_DOT":7.622e-5,"MEAN_MOTION_DDOT":0},{"OBJECT_NAME":"FLOCK 4H-35","OBJECT_ID":"2025-276CA","EPOCH":"2026-04-26T18:16:33.030624","MEAN_MOTION":15.20098663,"ECCENTRICITY":0.00035315,"INCLINATION":97.4214,"RA_OF_ASC_NODE":191.3503,"ARG_OF_PERICENTER":106.1144,"MEAN_ANOMALY":254.0481,"EPHEMERIS_TYPE":0,"CLASSIFICATION_TYPE":"U","NORAD_CAT_ID":66738,"ELEMENT_SET_NO":999,"REV_AT_EPOCH":2191,"BSTAR":0.00036774434,"MEAN_MOTION_DOT":7.879e-5,"MEAN_MOTION_DDOT":0},{"OBJECT_NAME":"FLOCK 4H-36","OBJECT_ID":"2025-276CB","EPOCH":"2026-04-26T17:19:01.517376","MEAN_MOTION":15.19824973,"ECCENTRICITY":0.00040279,"INCLINATION":97.4261,"RA_OF_ASC_NODE":191.3447,"ARG_OF_PERICENTER":124.304,"MEAN_ANOMALY":235.8577,"EPHEMERIS_TYPE":0,"CLASSIFICATION_TYPE":"U","NORAD_CAT_ID":66739,"ELEMENT_SET_NO":999,"REV_AT_EPOCH":2261,"BSTAR":0.00034140888,"MEAN_MOTION_DOT":7.251e-5,"MEAN_MOTION_DDOT":0}]
